OBJECT_NAME,OBJECT_ID,EPOCH,MEAN_MOTION,ECCENTRICITY,INCLINATION,RA_OF_ASC_NODE,ARG_OF_PERICENTER,MEAN_ANOMALY,EPHEMERIS_TYPE,CLASSIFICATION_TYPE,NORAD_CAT_ID,ELEMENT_SET_NO,REV_AT_EPOCH,BSTAR,MEAN_MOTION_DOT,MEAN_MOTION_DDOT
DMSP 5D-3 F17 (USA 191),2006-050A,2026-06-27T11:50:41.966592,14.14994219,.001075,98.7378,184.8527,32.4320,327.7513,0,U,29522,999,1388,.51251E-4,.56E-6,0
BADR-4,2006-051A,2026-06-27T12:40:14.779776,1.00268767,.0005377,2.0309,81.0184,13.0722,46.0691,0,U,29526,999,5137,0,.165E-5,0
NAVSTAR 59 (USA 192),2006-052A,2026-06-26T21:23:58.694784,2.00558656,.0084877,54.9336,213.6215,90.7582,270.2951,0,U,29601,999,14360,0,.83E-6,0
WILDBLUE-1,2006-054A,2026-06-27T11:58:39.883008,1.00271213,.0001756,2.8292,80.3614,7.0279,256.6733,0,U,29643,999,5389,0,-.4E-6,0
LAPAN-TUBSAT,2007-001A,2026-06-27T11:45:10.594944,14.85961082,.0012806,98.1342,177.9457,146.4846,213.7181,0,U,29709,999,5268,.11722E-3,.967E-5,0
THEMIS A,2007-004A,2026-06-25T10:26:48.300000,0.87843945,.83649326,8.4786,109.0264,200.7985,72.7085,0,U,30580,999,4135,.39609373E-1,-.462E-5,0
SKYNET 5A,2007-007B,2026-06-27T02:41:39.612192,1.00271314,.00037056,5.3249,73.6223,27.5478,309.6925,0,U,30794,999,7079,0,-.265E-5,0
THEMIS D,2007-004D,2026-06-17T03:32:48.469344,0.87589082,.83319779,7.6675,80.4898,230.8824,268.0937,0,U,30797,999,4107,0,-.39E-5,0
THEMIS E,2007-004E,2026-06-18T13:02:07.869696,0.88041867,.84400719,6.3692,98.0709,215.6799,161.0349,0,U,30798,999,6593,0,-.327E-5,0
ANIK F3,2007-009A,2026-06-27T11:16:12.735840,1.00270591,.0002928,1.2237,83.7436,7.3715,234.8171,0,U,31102,999,4666,0,.1E-6,0
HAIYANG-1B,2007-010A,2026-06-27T11:49:54.363648,14.31029347,.0013706,98.3499,159.9387,165.5533,194.6045,0,U,31113,999,211,.50281E-4,.91E-6,0
SAUDISAT 3,2007-012B,2026-06-27T09:23:02.596992,14.71431078,.0014312,98.1459,128.7984,189.8320,170.2609,0,U,31118,999,2924,.48287E-4,.248E-5,0
SAUDICOMSAT 7,2007-012C,2026-06-27T10:02:20.286240,14.66119439,.0056026,98.3783,152.7595,163.1164,197.1920,0,U,31119,999,2393,.10009E-3,.509E-5,0
SAUDICOMSAT 6,2007-012E,2026-06-27T10:05:45.731616,14.62569264,.0070524,98.4102,146.1277,295.4712,63.9204,0,U,31121,999,2168,.10706E-3,.509E-5,0
SAUDICOMSAT 5,2007-012H,2026-06-27T10:41:39.075360,14.68169577,.0048741,98.3494,153.5322,93.2655,267.4127,0,U,31124,999,2510,.13317E-3,.726E-5,0
SAUDICOMSAT 3,2007-012J,2026-06-27T10:57:09.929952,14.70722713,.0039617,98.3147,154.0907,21.5020,338.7838,0,U,31125,999,2633,.15296E-3,.889E-5,0
SAUDICOMSAT 4,2007-012L,2026-06-27T11:18:46.048320,14.64521008,.0062398,98.3988,151.2519,225.4683,134.1413,0,U,31127,999,2279,.82795E-4,.397E-5,0
ASTRA 1L,2007-016A,2026-06-27T07:15:24.718752,1.00270436,.0005709,1.3475,81.5136,18.8605,259.3870,0,U,31306,999,4508,0,-.174E-5,0
GALAXY 17 (G-17),2007-016B,2026-06-27T12:06:09.164736,1.00271110,.0004601,2.9975,79.7782,20.3957,271.9658,0,U,31307,999,6990,0,-.197E-5,0
YAOGAN-2,2007-019A,2026-06-27T11:33:11.547360,14.82692761,.0019357,98.2637,39.4184,238.9479,120.9833,0,U,31490,999,2914,.10805E-3,.816E-5,0
GLOBALSTAR M069,2007-020C,2026-06-27T12:04:16.282272,12.23471613,.00021,52.0005,222.9291,170.7651,330.1583,0,U,31573,999,88006,.3766E-3,-.52E-6,0
GLOBALSTAR M072,2007-020D,2026-06-27T11:28:06.062016,11.91658438,.0001524,51.9937,72.8490,357.6329,173.4660,0,U,31574,999,87620,-.12276E-5,-.84E-6,0
COSMO-SKYMED 1,2007-023A,2026-06-27T11:52:13.725984,14.97154881,.0001767,97.8859,10.4374,88.2666,271.8758,0,U,31598,999,3133,.25435E-3,.2878E-4,0
TERRASAR-X,2007-026A,2026-06-26T14:39:40.525344,15.19154138,.0001614,97.4450,185.1818,89.1456,270.9963,0,U,31698,999,5465,.45154721E-4,.881E-5,0
COSMOS 2428,2007-029A,2026-06-27T11:31:03.440352,14.12927896,.0007126,70.9373,332.8657,115.2842,244.9018,0,U,31792,999,97960,.23959E-4,-.3E-7,0
SAR-LUPE 2,2007-030A,2026-06-27T12:59:15.576864,15.51652251,.0002578,98.1055,284.2680,180.1641,179.9609,0,U,31797,999,5854,.66676E-3,.39656E-3,0
WORLDVIEW-1 (WV-1),2007-041A,2026-06-27T12:47:07.628352,15.24376583,.0001273,97.3884,298.1283,339.9864,20.1323,0,U,32060,999,4445,.25332E-3,.6134E-4,0
INTELSAT 11 (IS-11),2007-044B,2026-06-27T09:28:08.745024,0.99047724,.0003104,3.5915,78.5532,84.4812,335.4397,0,U,32253,999,6855,0,.43E-6,0
WGS F1 (USA 195),2007-046A,2026-06-27T12:18:15.506208,1.00268795,.0000598,0.0262,75.8836,319.5087,22.2953,0,U,32258,999,5243,0,-.256E-5,0
NAVSTAR 60 (USA 196),2007-047A,2026-06-27T04:43:25.382784,2.00554886,.0167144,54.1023,79.6530,87.5980,274.3314,0,U,32260,999,13701,0,-.7E-6,0
GLOBALSTAR M066,2007-048C,2026-06-27T08:04:49.203840,12.30387084,.0005633,51.9601,28.7764,65.6063,105.5691,0,U,32265,999,86147,-.75425E-4,-.103E-5,0
